[{"OBJECT_NAME":"ONEWEB-0036","OBJECT_ID":"2020-008P","EPOCH":"2026-03-09T21:29:07.842624","MEAN_MOTION":13.09812347,"ECCENTRICITY":0.0001618,"INCLINATION":87.8776,"RA_OF_ASC_NODE":56.0205,"ARG_OF_PERICENTER":82.2406,"MEAN_ANOMALY":277.8904,"EPHEMERIS_TYPE":0,"CLASSIFICATION_TYPE":"U","NORAD_CAT_ID":45144,"ELEMENT_SET_NO":999,"REV_AT_EPOCH":29536,"BSTAR":-0.00052030849,"MEAN_MOTION_DOT":-1.68e-6,"MEAN_MOTION_DDOT":0},{"OBJECT_NAME":"DELTA 1 DEB","OBJECT_ID":"1975-052BR","EPOCH":"2026-03-09T22:05:41.353728","MEAN_MOTION":13.31704403,"ECCENTRICITY":0.03960179,"INCLINATION":99.4006,"RA_OF_ASC_NODE":214.0217,"ARG_OF_PERICENTER":180.0876,"MEAN_ANOMALY":305.9392,"EPHEMERIS_TYPE":0,"CLASSIFICATION_TYPE":"U","NORAD_CAT_ID":21347,"ELEMENT_SET_NO":999,"REV_AT_EPOCH":65136,"BSTAR":0.011227599,"MEAN_MOTION_DOT":8.3e-5,"MEAN_MOTION_DDOT":0}]
